{
"type": "FeatureCollection",
"name": "SELECT",
"xy_coordinate_resolution": 1e-07,
"features": [
{ "type": "Feature", "properties": { "callout_id": "R01", "callout_type": "children_play", "description": "Inclusive children play area with varied play opportunities, caregiver space and nearby shade.", "spacing_m": 100, "offset_m": 50, "reference": "park_west" }, "geometry": { "type": "LineString", "coordinates": [ [ 18.636756, 52.9955186 ], [ 18.6379335, 52.9947986 ] ] } },
{ "type": "Feature", "properties": { "callout_id": "R02", "callout_type": "active_adventure", "description": "Active and adventure play supporting movement, balance, jumping and linear play.", "spacing_m": 100, "offset_m": 50, "reference": "park_west" }, "geometry": { "type": "LineString", "coordinates": [ [ 18.6367636, 52.9946194 ], [ 18.6379653, 52.9945649 ] ] } },
{ "type": "Feature", "properties": { "callout_id": "R03", "callout_type": "outdoor_fitness", "description": "Outdoor fitness and calisthenics area for varied ages and ability levels.", "spacing_m": 100, "offset_m": 50, "reference": "park_west" }, "geometry": { "type": "LineString", "coordinates": [ [ 18.6367711, 52.9937202 ], [ 18.6380714, 52.9943494 ] ] } },
{ "type": "Feature", "properties": { "callout_id": "R04", "callout_type": "relax_zone", "description": "Relaxation and quiet social zone near existing mature trees, with seating and informal rest space.", "spacing_m": 100, "offset_m": 50, "reference": "park_west" }, "geometry": { "type": "LineString", "coordinates": [ [ 18.6367485, 52.9964178 ], [ 18.6379014, 52.9950683 ] ] } },
{ "type": "Feature", "properties": { "callout_id": "S01", "callout_type": "sports_field", "description": "Tennis + basketball + volleyball", "spacing_m": null, "offset_m": 50, "reference": "field_east" }, "geometry": { "type": "LineString", "coordinates": [ [ 18.6394119, 52.994542 ], [ 18.6384108, 52.9945389 ] ] } }
]
}
