{
"type": "FeatureCollection",
"features": [
{ "type": "Feature", "properties": { "fid": 1, "tree_id": "E01", "canopy_m": 14.0, "source": "2026 orthophoto", "accuracy": "approximate canopy/cluster" }, "geometry": { "type": "Polygon", "coordinates": [ [ [ 475705.700000000011642, 570008.400000000023283 ], [ 475705.678421336167958, 570007.850786329945549 ], [ 475705.613818384183105, 570007.304958744789474 ], [ 475705.50658944278257, 570006.765882453066297 ], [ 475705.35739561408991, 570006.236881039454602 ], [ 475705.167156727577094, 570005.72121597349178 ], [ 475704.937045669357758, 570005.222066501853988 ], [ 475704.668481150467414, 570004.742510047042742 ], [ 475704.363118960638531, 570004.285503234015778 ], [ 475704.022841759200674, 570003.853863661759533 ], [ 475703.649747468298301, 570003.450252531678416 ], [ 475703.246136338333599, 570003.077158240834251 ], [ 475702.814496766077355, 570002.736881039454602 ], [ 475702.35748995305039, 570002.43151884956751 ], [ 475701.877933498180937, 570002.162954330677167 ], [ 475701.378784026543144, 570001.932843272457831 ], [ 475700.863118960638531, 570001.742604385945015 ], [ 475700.334117547026835, 570001.593410557252355 ], [ 475699.795041255303659, 570001.48618161585182 ], [ 475699.249213670089375, 570001.421578663866967 ], [ 475698.700000000011642, 570001.400000000023283 ], [ 475698.150786329933908, 570001.421578663866967 ], [ 475697.604958744719625, 570001.48618161585182 ], [ 475697.065882452996448, 570001.593410557252355 ], [ 475696.536881039384753, 570001.742604385945015 ], [ 475696.021215973480139, 570001.932843272457831 ], [ 475695.522066501842346, 570002.162954330677167 ], [ 475695.042510046972893, 570002.43151884956751 ], [ 475694.585503233945929, 570002.736881039454602 ], [ 475694.153863661689684, 570003.077158240834251 ], [ 475693.750252531724982, 570003.450252531678416 ], [ 475693.37715824082261, 570003.853863661759533 ], [ 475693.036881039384753, 570004.285503234015778 ], [ 475692.731518849555869, 570004.742510047042742 ], [ 475692.462954330665525, 570005.222066501853988 ], [ 475692.232843272446189, 570005.72121597349178 ], [ 475692.042604385933373, 570006.236881039454602 ], [ 475691.893410557240713, 570006.765882453066297 ], [ 475691.786181615840178, 570007.304958744789474 ], [ 475691.721578663855325, 570007.850786329945549 ], [ 475691.700000000011642, 570008.400000000023283 ], [ 475691.721578663855325, 570008.949213670101017 ], [ 475691.786181615840178, 570009.495041255257092 ], [ 475691.893410557240713, 570010.034117546980269 ], [ 475692.042604385933373, 570010.563118960591964 ], [ 475692.232843272446189, 570011.078784026554786 ], [ 475692.462954330665525, 570011.577933498192579 ], [ 475692.731518849555869, 570012.057489953003824 ], [ 475693.036881039384753, 570012.514496766030788 ], [ 475693.37715824082261, 570012.946136338287033 ], [ 475693.750252531724982, 570013.34974746836815 ], [ 475694.153863661689684, 570013.722841759212315 ], [ 475694.585503233945929, 570014.063118960591964 ], [ 475695.042510046972893, 570014.368481150479056 ], [ 475695.522066501842346, 570014.6370456693694 ], [ 475696.021215973480139, 570014.867156727588736 ], [ 475696.536881039384753, 570015.057395614101551 ], [ 475697.065882452996448, 570015.206589442794211 ], [ 475697.604958744719625, 570015.313818384194747 ], [ 475698.150786329933908, 570015.378421336179599 ], [ 475698.700000000011642, 570015.400000000023283 ], [ 475699.249213670089375, 570015.378421336179599 ], [ 475699.795041255303659, 570015.313818384194747 ], [ 475700.334117547026835, 570015.206589442794211 ], [ 475700.863118960638531, 570015.057395614101551 ], [ 475701.378784026543144, 570014.867156727588736 ], [ 475701.877933498180937, 570014.6370456693694 ], [ 475702.35748995305039, 570014.368481150479056 ], [ 475702.814496766077355, 570014.063118960591964 ], [ 475703.246136338333599, 570013.722841759212315 ], [ 475703.649747468298301, 570013.34974746836815 ], [ 475704.022841759200674, 570012.946136338287033 ], [ 475704.363118960638531, 570012.514496766030788 ], [ 475704.668481150467414, 570012.057489953003824 ], [ 475704.937045669357758, 570011.577933498192579 ], [ 475705.167156727577094, 570011.078784026554786 ], [ 475705.35739561408991, 570010.563118960591964 ], [ 475705.50658944278257, 570010.034117546980269 ], [ 475705.613818384183105, 570009.495041255257092 ], [ 475705.678421336167958, 570008.949213670101017 ], [ 475705.700000000011642, 570008.400000000023283 ] ] ] } },
{ "type": "Feature", "properties": { "fid": 2, "tree_id": "E02", "canopy_m": 14.0, "source": "2026 orthophoto", "accuracy": "approximate canopy/cluster" }, "geometry": { "type": "Polygon", "coordinates": [ [ [ 475706.099999999976717, 570027.800000000046566 ], [ 475706.078421336133033, 570027.250786329968832 ], [ 475706.01381838414818, 570026.704958744812757 ], [ 475705.906589442747645, 570026.16588245308958 ], [ 475705.757395614054985, 570025.636881039477885 ], [ 475705.567156727542169, 570025.121215973515064 ], [ 475705.337045669322833, 570024.622066501877271 ], [ 475705.06848115043249, 570024.142510047066025 ], [ 475704.763118960603606, 570023.685503234039061 ], [ 475704.422841759165749, 570023.253863661782816 ], [ 475704.049747468263377, 570022.850252531701699 ], [ 475703.646136338298675, 570022.477158240857534 ], [ 475703.21449676604243, 570022.136881039477885 ], [ 475702.757489953015465, 570021.831518849590793 ], [ 475702.277933498146012, 570021.56295433070045 ], [ 475701.77878402650822, 570021.332843272481114 ], [ 475701.263118960603606, 570021.142604385968298 ], [ 475700.734117546991911, 570020.993410557275638 ], [ 475700.195041255268734, 570020.886181615875103 ], [ 475699.649213670054451, 570020.82157866389025 ], [ 475699.099999999976717, 570020.800000000046566 ], [ 475698.550786329898983, 570020.82157866389025 ], [ 475698.0049587446847, 570020.886181615875103 ], [ 475697.465882452961523, 570020.993410557275638 ], [ 475696.936881039349828, 570021.142604385968298 ], [ 475696.421215973445214, 570021.332843272481114 ], [ 475695.922066501807421, 570021.56295433070045 ], [ 475695.442510046937969, 570021.831518849590793 ], [ 475694.985503233911004, 570022.136881039477885 ], [ 475694.553863661654759, 570022.477158240857534 ], [ 475694.150252531690057, 570022.850252531701699 ], [ 475693.777158240787685, 570023.253863661782816 ], [ 475693.436881039349828, 570023.685503234039061 ], [ 475693.131518849520944, 570024.142510047066025 ], [ 475692.8629543306306, 570024.622066501877271 ], [ 475692.632843272411264, 570025.121215973515064 ], [ 475692.442604385898449, 570025.636881039477885 ], [ 475692.293410557205789, 570026.16588245308958 ], [ 475692.186181615805253, 570026.704958744812757 ], [ 475692.121578663820401, 570027.250786329968832 ], [ 475692.099999999976717, 570027.800000000046566 ], [ 475692.121578663820401, 570028.3492136701243 ], [ 475692.186181615805253, 570028.895041255280375 ], [ 475692.293410557205789, 570029.434117547003552 ], [ 475692.442604385898449, 570029.963118960615247 ], [ 475692.632843272411264, 570030.478784026578069 ], [ 475692.8629543306306, 570030.977933498215862 ], [ 475693.131518849520944, 570031.457489953027107 ], [ 475693.436881039349828, 570031.914496766054071 ], [ 475693.777158240787685, 570032.346136338310316 ], [ 475694.150252531690057, 570032.749747468391433 ], [ 475694.553863661654759, 570033.122841759235598 ], [ 475694.985503233911004, 570033.463118960615247 ], [ 475695.442510046937969, 570033.768481150502339 ], [ 475695.922066501807421, 570034.037045669392683 ], [ 475696.421215973445214, 570034.267156727612019 ], [ 475696.936881039349828, 570034.457395614124835 ], [ 475697.465882452961523, 570034.606589442817494 ], [ 475698.0049587446847, 570034.71381838421803 ], [ 475698.550786329898983, 570034.778421336202882 ], [ 475699.099999999976717, 570034.800000000046566 ], [ 475699.649213670054451, 570034.778421336202882 ], [ 475700.195041255268734, 570034.71381838421803 ], [ 475700.734117546991911, 570034.606589442817494 ], [ 475701.263118960603606, 570034.457395614124835 ], [ 475701.77878402650822, 570034.267156727612019 ], [ 475702.277933498146012, 570034.037045669392683 ], [ 475702.757489953015465, 570033.768481150502339 ], [ 475703.21449676604243, 570033.463118960615247 ], [ 475703.646136338298675, 570033.122841759235598 ], [ 475704.049747468263377, 570032.749747468391433 ], [ 475704.422841759165749, 570032.346136338310316 ], [ 475704.763118960603606, 570031.914496766054071 ], [ 475705.06848115043249, 570031.457489953027107 ], [ 475705.337045669322833, 570030.977933498215862 ], [ 475705.567156727542169, 570030.478784026578069 ], [ 475705.757395614054985, 570029.963118960615247 ], [ 475705.906589442747645, 570029.434117547003552 ], [ 475706.01381838414818, 570028.895041255280375 ], [ 475706.078421336133033, 570028.3492136701243 ], [ 475706.099999999976717, 570027.800000000046566 ] ] ] } },
{ "type": "Feature", "properties": { "fid": 4, "tree_id": "E04", "canopy_m": 10.0, "source": "2026 orthophoto", "accuracy": "approximate canopy/cluster" }, "geometry": { "type": "Polygon", "coordinates": [ [ [ 475707.599999999976717, 569963.900000000023283 ], [ 475707.584586668643169, 569963.507704521412961 ], [ 475707.538441702956334, 569963.117827674839646 ], [ 475707.461849601939321, 569962.73277318070177 ], [ 475707.35528258146951, 569962.354915028205141 ], [ 475707.21939766255673, 569961.986582838231698 ], [ 475707.055032620904967, 569961.630047501297668 ], [ 475706.863200821739156, 569961.287507176399231 ], [ 475706.645084971853066, 569960.961073738522828 ], [ 475706.402029827993829, 569960.652759758406319 ], [ 475706.135533905937336, 569960.364466094062664 ], [ 475705.847240241651889, 569960.097970172064379 ], [ 475705.538926261418965, 569959.854915028205141 ], [ 475705.212492823542561, 569959.636799178202637 ], [ 475704.869952498702332, 569959.444967379095033 ], [ 475704.51341716182651, 569959.28060233744327 ], [ 475704.145084971853066, 569959.144717418588698 ], [ 475703.767226819240022, 569959.038150398060679 ], [ 475703.382172325160354, 569958.961558297043666 ], [ 475702.992295478587039, 569958.915413331356831 ], [ 475702.599999999976717, 569958.900000000023283 ], [ 475702.207704521366395, 569958.915413331356831 ], [ 475701.817827674793079, 569958.961558297043666 ], [ 475701.432773180713411, 569959.038150398060679 ], [ 475701.054915028100368, 569959.144717418588698 ], [ 475700.686582838126924, 569959.28060233744327 ], [ 475700.330047501251101, 569959.444967379095033 ], [ 475699.987507176410872, 569959.636799178202637 ], [ 475699.661073738534469, 569959.854915028205141 ], [ 475699.352759758301545, 569960.097970172064379 ], [ 475699.064466094016097, 569960.364466094062664 ], [ 475698.797970171959605, 569960.652759758406319 ], [ 475698.554915028100368, 569960.961073738522828 ], [ 475698.336799178214278, 569961.287507176399231 ], [ 475698.144967379048467, 569961.630047501297668 ], [ 475697.980602337396704, 569961.986582838231698 ], [ 475697.844717418483924, 569962.354915028205141 ], [ 475697.738150398014113, 569962.73277318070177 ], [ 475697.6615582969971, 569963.117827674839646 ], [ 475697.615413331310265, 569963.507704521412961 ], [ 475697.599999999976717, 569963.900000000023283 ], [ 475697.615413331310265, 569964.292295478633605 ], [ 475697.6615582969971, 569964.682172325206921 ], [ 475697.738150398014113, 569965.067226819344796 ], [ 475697.844717418483924, 569965.445084971841425 ], [ 475697.980602337396704, 569965.813417161814868 ], [ 475698.144967379048467, 569966.169952498748899 ], [ 475698.336799178214278, 569966.512492823647335 ], [ 475698.554915028100368, 569966.838926261523739 ], [ 475698.797970171959605, 569967.147240241640247 ], [ 475699.064466094016097, 569967.435533905983903 ], [ 475699.352759758301545, 569967.702029827982187 ], [ 475699.661073738534469, 569967.945084971841425 ], [ 475699.987507176410872, 569968.16320082184393 ], [ 475700.330047501251101, 569968.355032620951533 ], [ 475700.686582838126924, 569968.519397662603296 ], [ 475701.054915028100368, 569968.655282581457868 ], [ 475701.432773180713411, 569968.761849601985887 ], [ 475701.817827674793079, 569968.8384417030029 ], [ 475702.207704521366395, 569968.884586668689735 ], [ 475702.599999999976717, 569968.900000000023283 ], [ 475702.992295478587039, 569968.884586668689735 ], [ 475703.382172325160354, 569968.8384417030029 ], [ 475703.767226819240022, 569968.761849601985887 ], [ 475704.145084971853066, 569968.655282581457868 ], [ 475704.51341716182651, 569968.519397662603296 ], [ 475704.869952498702332, 569968.355032620951533 ], [ 475705.212492823542561, 569968.16320082184393 ], [ 475705.538926261418965, 569967.945084971841425 ], [ 475705.847240241651889, 569967.702029827982187 ], [ 475706.135533905937336, 569967.435533905983903 ], [ 475706.402029827993829, 569967.147240241640247 ], [ 475706.645084971853066, 569966.838926261523739 ], [ 475706.863200821739156, 569966.512492823647335 ], [ 475707.055032620904967, 569966.169952498748899 ], [ 475707.21939766255673, 569965.813417161814868 ], [ 475707.35528258146951, 569965.445084971841425 ], [ 475707.461849601939321, 569965.067226819344796 ], [ 475707.538441702956334, 569964.682172325206921 ], [ 475707.584586668643169, 569964.292295478633605 ], [ 475707.599999999976717, 569963.900000000023283 ] ] ] } },
{ "type": "Feature", "properties": { "fid": 7, "tree_id": "E07", "canopy_m": 10.0, "source": "2026 orthophoto", "accuracy": "approximate canopy/cluster" }, "geometry": { "type": "Polygon", "coordinates": [ [ [ 475735.599999999976717, 570000.400000000023283 ], [ 475735.584586668643169, 570000.007704521412961 ], [ 475735.538441702956334, 569999.617827674839646 ], [ 475735.461849601939321, 569999.23277318070177 ], [ 475735.35528258146951, 569998.854915028205141 ], [ 475735.21939766255673, 569998.486582838231698 ], [ 475735.055032620904967, 569998.130047501297668 ], [ 475734.863200821739156, 569997.787507176399231 ], [ 475734.645084971853066, 569997.461073738522828 ], [ 475734.402029827993829, 569997.152759758406319 ], [ 475734.135533905937336, 569996.864466094062664 ], [ 475733.847240241651889, 569996.597970172064379 ], [ 475733.538926261418965, 569996.354915028205141 ], [ 475733.212492823542561, 569996.136799178202637 ], [ 475732.869952498702332, 569995.944967379095033 ], [ 475732.51341716182651, 569995.78060233744327 ], [ 475732.145084971853066, 569995.644717418588698 ], [ 475731.767226819240022, 569995.538150398060679 ], [ 475731.382172325160354, 569995.461558297043666 ], [ 475730.992295478587039, 569995.415413331356831 ], [ 475730.599999999976717, 569995.400000000023283 ], [ 475730.207704521366395, 569995.415413331356831 ], [ 475729.817827674793079, 569995.461558297043666 ], [ 475729.432773180713411, 569995.538150398060679 ], [ 475729.054915028100368, 569995.644717418588698 ], [ 475728.686582838126924, 569995.78060233744327 ], [ 475728.330047501251101, 569995.944967379095033 ], [ 475727.987507176410872, 569996.136799178202637 ], [ 475727.661073738534469, 569996.354915028205141 ], [ 475727.352759758301545, 569996.597970172064379 ], [ 475727.064466094016097, 569996.864466094062664 ], [ 475726.797970171959605, 569997.152759758406319 ], [ 475726.554915028100368, 569997.461073738522828 ], [ 475726.336799178214278, 569997.787507176399231 ], [ 475726.144967379048467, 569998.130047501297668 ], [ 475725.980602337396704, 569998.486582838231698 ], [ 475725.844717418483924, 569998.854915028205141 ], [ 475725.738150398014113, 569999.23277318070177 ], [ 475725.6615582969971, 569999.617827674839646 ], [ 475725.615413331310265, 570000.007704521412961 ], [ 475725.599999999976717, 570000.400000000023283 ], [ 475725.615413331310265, 570000.792295478633605 ], [ 475725.6615582969971, 570001.182172325206921 ], [ 475725.738150398014113, 570001.567226819344796 ], [ 475725.844717418483924, 570001.945084971841425 ], [ 475725.980602337396704, 570002.313417161814868 ], [ 475726.144967379048467, 570002.669952498748899 ], [ 475726.336799178214278, 570003.012492823647335 ], [ 475726.554915028100368, 570003.338926261523739 ], [ 475726.797970171959605, 570003.647240241640247 ], [ 475727.064466094016097, 570003.935533905983903 ], [ 475727.352759758301545, 570004.202029827982187 ], [ 475727.661073738534469, 570004.445084971841425 ], [ 475727.987507176410872, 570004.66320082184393 ], [ 475728.330047501251101, 570004.855032620951533 ], [ 475728.686582838126924, 570005.019397662603296 ], [ 475729.054915028100368, 570005.155282581457868 ], [ 475729.432773180713411, 570005.261849601985887 ], [ 475729.817827674793079, 570005.3384417030029 ], [ 475730.207704521366395, 570005.384586668689735 ], [ 475730.599999999976717, 570005.400000000023283 ], [ 475730.992295478587039, 570005.384586668689735 ], [ 475731.382172325160354, 570005.3384417030029 ], [ 475731.767226819240022, 570005.261849601985887 ], [ 475732.145084971853066, 570005.155282581457868 ], [ 475732.51341716182651, 570005.019397662603296 ], [ 475732.869952498702332, 570004.855032620951533 ], [ 475733.212492823542561, 570004.66320082184393 ], [ 475733.538926261418965, 570004.445084971841425 ], [ 475733.847240241651889, 570004.202029827982187 ], [ 475734.135533905937336, 570003.935533905983903 ], [ 475734.402029827993829, 570003.647240241640247 ], [ 475734.645084971853066, 570003.338926261523739 ], [ 475734.863200821739156, 570003.012492823647335 ], [ 475735.055032620904967, 570002.669952498748899 ], [ 475735.21939766255673, 570002.313417161814868 ], [ 475735.35528258146951, 570001.945084971841425 ], [ 475735.461849601939321, 570001.567226819344796 ], [ 475735.538441702956334, 570001.182172325206921 ], [ 475735.584586668643169, 570000.792295478633605 ], [ 475735.599999999976717, 570000.400000000023283 ] ] ] } },
{ "type": "Feature", "properties": { "fid": 11, "tree_id": "E11", "canopy_m": 7.0, "source": "2026 orthophoto", "accuracy": "approximate canopy/cluster" }, "geometry": { "type": "Polygon", "coordinates": [ [ [ 475709.900000000023283, 569974.400000000023283 ], [ 475709.889210668101441, 569974.125393164926209 ], [ 475709.856909192109015, 569973.852479372406378 ], [ 475709.803294721408747, 569973.58294122654479 ], [ 475709.728697807062417, 569973.318440519738942 ], [ 475709.633578363806009, 569973.060607986757532 ], [ 475709.518522834696341, 569972.811033250880428 ], [ 475709.38424057525117, 569972.571255023474805 ], [ 475709.231559480307624, 569972.342751616961323 ], [ 475709.061420879617799, 569972.126931830891408 ], [ 475708.874873734195717, 569971.925126265850849 ], [ 475708.673068169155158, 569971.738579120370559 ], [ 475708.457248383027036, 569971.568440519738942 ], [ 475708.228744976513553, 569971.415759424795397 ], [ 475707.988966749107931, 569971.281477165408432 ], [ 475707.739392013289034, 569971.166421636240557 ], [ 475707.481559480307624, 569971.071302192984149 ], [ 475707.217058773501776, 569970.996705278637819 ], [ 475706.947520627640188, 569970.943090807995759 ], [ 475706.67460683506215, 569970.910789332003333 ], [ 475706.400000000023283, 569970.900000000023283 ], [ 475706.125393164984416, 569970.910789332003333 ], [ 475705.852479372406378, 569970.943090807995759 ], [ 475705.58294122654479, 569970.996705278637819 ], [ 475705.318440519738942, 569971.071302192984149 ], [ 475705.060607986757532, 569971.166421636240557 ], [ 475704.811033250938635, 569971.281477165408432 ], [ 475704.571255023533013, 569971.415759424795397 ], [ 475704.34275161701953, 569971.568440519738942 ], [ 475704.126931830891408, 569971.738579120370559 ], [ 475703.925126265850849, 569971.925126265850849 ], [ 475703.738579120428767, 569972.126931830891408 ], [ 475703.568440519738942, 569972.342751616961323 ], [ 475703.415759424795397, 569972.571255023474805 ], [ 475703.281477165350225, 569972.811033250880428 ], [ 475703.166421636240557, 569973.060607986757532 ], [ 475703.071302192984149, 569973.318440519738942 ], [ 475702.996705278637819, 569973.58294122654479 ], [ 475702.943090807937551, 569973.852479372406378 ], [ 475702.910789331945125, 569974.125393164926209 ], [ 475702.900000000023283, 569974.400000000023283 ], [ 475702.910789331945125, 569974.674606835120358 ], [ 475702.943090807937551, 569974.947520627640188 ], [ 475702.996705278637819, 569975.217058773501776 ], [ 475703.071302192984149, 569975.481559480307624 ], [ 475703.166421636240557, 569975.739392013289034 ], [ 475703.281477165350225, 569975.988966749166138 ], [ 475703.415759424795397, 569976.228744976571761 ], [ 475703.568440519738942, 569976.457248383085243 ], [ 475703.738579120428767, 569976.673068169155158 ], [ 475703.925126265850849, 569976.874873734195717 ], [ 475704.126931830891408, 569977.061420879676007 ], [ 475704.34275161701953, 569977.231559480307624 ], [ 475704.571255023533013, 569977.38424057525117 ], [ 475704.811033250938635, 569977.518522834638134 ], [ 475705.060607986757532, 569977.633578363806009 ], [ 475705.318440519738942, 569977.728697807062417 ], [ 475705.58294122654479, 569977.803294721408747 ], [ 475705.852479372406378, 569977.856909192050807 ], [ 475706.125393164984416, 569977.889210668043233 ], [ 475706.400000000023283, 569977.900000000023283 ], [ 475706.67460683506215, 569977.889210668043233 ], [ 475706.947520627640188, 569977.856909192050807 ], [ 475707.217058773501776, 569977.803294721408747 ], [ 475707.481559480307624, 569977.728697807062417 ], [ 475707.739392013289034, 569977.633578363806009 ], [ 475707.988966749107931, 569977.518522834638134 ], [ 475708.228744976513553, 569977.38424057525117 ], [ 475708.457248383027036, 569977.231559480307624 ], [ 475708.673068169155158, 569977.061420879676007 ], [ 475708.874873734195717, 569976.874873734195717 ], [ 475709.061420879617799, 569976.673068169155158 ], [ 475709.231559480307624, 569976.457248383085243 ], [ 475709.38424057525117, 569976.228744976571761 ], [ 475709.518522834696341, 569975.988966749166138 ], [ 475709.633578363806009, 569975.739392013289034 ], [ 475709.728697807062417, 569975.481559480307624 ], [ 475709.803294721408747, 569975.217058773501776 ], [ 475709.856909192109015, 569974.947520627640188 ], [ 475709.889210668101441, 569974.674606835120358 ], [ 475709.900000000023283, 569974.400000000023283 ] ] ] } },
{ "type": "Feature", "properties": { "fid": 13, "tree_id": "E13", "canopy_m": 8.0, "source": "2026 orthophoto", "accuracy": "approximate canopy/cluster" }, "geometry": { "type": "Polygon", "coordinates": [ [ [ 475699.599999999976717, 570031.400000000023283 ], [ 475699.587669334898237, 570031.086163617088459 ], [ 475699.55075336236041, 570030.774262139806524 ], [ 475699.489479681593366, 570030.466218544635922 ], [ 475699.404226065147668, 570030.163932022522204 ], [ 475699.295518130005803, 570029.869266270543449 ], [ 475699.164026096754242, 570029.584038001019508 ], [ 475699.010560657421593, 570029.310005741193891 ], [ 475698.836067977477796, 570029.048858990892768 ], [ 475698.641623862378765, 570028.802207806729712 ], [ 475698.428427124745212, 570028.571572875254788 ], [ 475698.197792193270288, 570028.358376137679443 ], [ 475697.95114100916544, 570028.163932022522204 ], [ 475697.689994258864317, 570027.989439342636615 ], [ 475697.415961998922285, 570027.835973903303966 ], [ 475697.130733729456551, 570027.704481869935989 ], [ 475696.836067977477796, 570027.595773934852332 ], [ 475696.533781455422286, 570027.510520318406634 ], [ 475696.225737860135268, 570027.44924663763959 ], [ 475695.913836382911541, 570027.412330665043555 ], [ 475695.599999999976717, 570027.400000000023283 ], [ 475695.286163617041893, 570027.412330665043555 ], [ 475694.974262139818165, 570027.44924663763959 ], [ 475694.666218544531148, 570027.510520318406634 ], [ 475694.363932022475637, 570027.595773934852332 ], [ 475694.069266270496882, 570027.704481869935989 ], [ 475693.784038001031149, 570027.835973903303966 ], [ 475693.510005741089117, 570027.989439342636615 ], [ 475693.248858990787994, 570028.163932022522204 ], [ 475693.002207806683145, 570028.358376137679443 ], [ 475692.771572875208221, 570028.571572875254788 ], [ 475692.558376137574669, 570028.802207806729712 ], [ 475692.363932022475637, 570029.048858990892768 ], [ 475692.189439342531841, 570029.310005741193891 ], [ 475692.035973903199192, 570029.584038001019508 ], [ 475691.904481869947631, 570029.869266270543449 ], [ 475691.795773934805766, 570030.163932022522204 ], [ 475691.710520318360068, 570030.466218544635922 ], [ 475691.649246637593023, 570030.774262139806524 ], [ 475691.612330665055197, 570031.086163617088459 ], [ 475691.599999999976717, 570031.400000000023283 ], [ 475691.612330665055197, 570031.713836382958107 ], [ 475691.649246637593023, 570032.025737860240042 ], [ 475691.710520318360068, 570032.333781455410644 ], [ 475691.795773934805766, 570032.636067977524363 ], [ 475691.904481869947631, 570032.930733729503118 ], [ 475692.035973903199192, 570033.215961999027058 ], [ 475692.189439342531841, 570033.489994258852676 ], [ 475692.363932022475637, 570033.751141009153798 ], [ 475692.558376137574669, 570033.997792193316855 ], [ 475692.771572875208221, 570034.228427124791779 ], [ 475693.002207806683145, 570034.441623862367123 ], [ 475693.248858990787994, 570034.636067977524363 ], [ 475693.510005741089117, 570034.810560657409951 ], [ 475693.784038001031149, 570034.9640260967426 ], [ 475694.069266270496882, 570035.095518130110577 ], [ 475694.363932022475637, 570035.204226065194234 ], [ 475694.666218544531148, 570035.289479681639932 ], [ 475694.974262139818165, 570035.350753362406977 ], [ 475695.286163617041893, 570035.387669335003011 ], [ 475695.599999999976717, 570035.400000000023283 ], [ 475695.913836382911541, 570035.387669335003011 ], [ 475696.225737860135268, 570035.350753362406977 ], [ 475696.533781455422286, 570035.289479681639932 ], [ 475696.836067977477796, 570035.204226065194234 ], [ 475697.130733729456551, 570035.095518130110577 ], [ 475697.415961998922285, 570034.9640260967426 ], [ 475697.689994258864317, 570034.810560657409951 ], [ 475697.95114100916544, 570034.636067977524363 ], [ 475698.197792193270288, 570034.441623862367123 ], [ 475698.428427124745212, 570034.228427124791779 ], [ 475698.641623862378765, 570033.997792193316855 ], [ 475698.836067977477796, 570033.751141009153798 ], [ 475699.010560657421593, 570033.489994258852676 ], [ 475699.164026096754242, 570033.215961999027058 ], [ 475699.295518130005803, 570032.930733729503118 ], [ 475699.404226065147668, 570032.636067977524363 ], [ 475699.489479681593366, 570032.333781455410644 ], [ 475699.55075336236041, 570032.025737860240042 ], [ 475699.587669334898237, 570031.713836382958107 ], [ 475699.599999999976717, 570031.400000000023283 ] ] ] } },
{ "type": "Feature", "properties": { "fid": 14, "tree_id": "E14", "canopy_m": 5.0, "source": "2026 orthophoto", "accuracy": "approximate canopy/cluster" }, "geometry": { "type": "Polygon", "coordinates": [ [ [ 475737.5, 569943.800000000046566 ], [ 475737.492293334333226, 569943.603852260741405 ], [ 475737.469220851489808, 569943.40891383739654 ], [ 475737.430924800981302, 569943.21638659038581 ], [ 475737.377641290717293, 569943.027457514079288 ], [ 475737.309698831290007, 569942.843291419092566 ], [ 475737.227516310464125, 569942.665023750741966 ], [ 475737.131600410910323, 569942.493753588292748 ], [ 475737.022542485909071, 569942.330536869354546 ], [ 475736.901014913979452, 569942.176379879238084 ], [ 475736.76776695298031, 569942.032233047066256 ], [ 475736.623620120808482, 569941.898985086008906 ], [ 475736.469463130750228, 569941.777457514079288 ], [ 475736.306246411812026, 569941.668399589136243 ], [ 475736.134976249362808, 569941.572483689524233 ], [ 475735.956708580895793, 569941.490301168756559 ], [ 475735.772542485909071, 569941.422358709271066 ], [ 475735.583613409660757, 569941.369075199007057 ], [ 475735.391086162591819, 569941.330779148614965 ], [ 475735.196147739305161, 569941.30770666571334 ], [ 475735.0, 569941.300000000046566 ], [ 475734.803852260694839, 569941.30770666571334 ], [ 475734.608913837408181, 569941.330779148614965 ], [ 475734.416386590339243, 569941.369075199007057 ], [ 475734.227457514090929, 569941.422358709271066 ], [ 475734.043291419104207, 569941.490301168756559 ], [ 475733.865023750637192, 569941.572483689524233 ], [ 475733.693753588187974, 569941.668399589136243 ], [ 475733.530536869249772, 569941.777457514079288 ], [ 475733.376379879191518, 569941.898985086008906 ], [ 475733.23223304701969, 569942.032233047066256 ], [ 475733.098985086020548, 569942.176379879238084 ], [ 475732.977457514090929, 569942.330536869354546 ], [ 475732.868399589089677, 569942.493753588292748 ], [ 475732.772483689535875, 569942.665023750741966 ], [ 475732.690301168709993, 569942.843291419092566 ], [ 475732.622358709282707, 569943.027457514079288 ], [ 475732.569075199018698, 569943.21638659038581 ], [ 475732.530779148510192, 569943.40891383739654 ], [ 475732.507706665666774, 569943.603852260741405 ], [ 475732.5, 569943.800000000046566 ], [ 475732.507706665666774, 569943.996147739351727 ], [ 475732.530779148510192, 569944.191086162696593 ], [ 475732.569075199018698, 569944.383613409707323 ], [ 475732.622358709282707, 569944.572542486013845 ], [ 475732.690301168709993, 569944.756708581000566 ], [ 475732.772483689535875, 569944.934976249351166 ], [ 475732.868399589089677, 569945.106246411800385 ], [ 475732.977457514090929, 569945.269463130738586 ], [ 475733.098985086020548, 569945.423620120855048 ], [ 475733.23223304701969, 569945.567766953026876 ], [ 475733.376379879191518, 569945.701014914084226 ], [ 475733.530536869249772, 569945.822542486013845 ], [ 475733.693753588187974, 569945.931600410956889 ], [ 475733.865023750637192, 569946.027516310568899 ], [ 475734.043291419104207, 569946.109698831336573 ], [ 475734.227457514090929, 569946.177641290822066 ], [ 475734.416386590339243, 569946.230924801086076 ], [ 475734.608913837408181, 569946.269220851478167 ], [ 475734.803852260694839, 569946.292293334379792 ], [ 475735.0, 569946.300000000046566 ], [ 475735.196147739305161, 569946.292293334379792 ], [ 475735.391086162591819, 569946.269220851478167 ], [ 475735.583613409660757, 569946.230924801086076 ], [ 475735.772542485909071, 569946.177641290822066 ], [ 475735.956708580895793, 569946.109698831336573 ], [ 475736.134976249362808, 569946.027516310568899 ], [ 475736.306246411812026, 569945.931600410956889 ], [ 475736.469463130750228, 569945.822542486013845 ], [ 475736.623620120808482, 569945.701014914084226 ], [ 475736.76776695298031, 569945.567766953026876 ], [ 475736.901014913979452, 569945.423620120855048 ], [ 475737.022542485909071, 569945.269463130738586 ], [ 475737.131600410910323, 569945.106246411800385 ], [ 475737.227516310464125, 569944.934976249351166 ], [ 475737.309698831290007, 569944.756708581000566 ], [ 475737.377641290717293, 569944.572542486013845 ], [ 475737.430924800981302, 569944.383613409707323 ], [ 475737.469220851489808, 569944.191086162696593 ], [ 475737.492293334333226, 569943.996147739351727 ], [ 475737.5, 569943.800000000046566 ] ] ] } },
{ "type": "Feature", "properties": { "fid": 18, "tree_id": "E18", "canopy_m": 8.0, "source": "2026 orthophoto", "accuracy": "approximate canopy/cluster" }, "geometry": { "type": "Polygon", "coordinates": [ [ [ 475708.0, 570017.900000000023283 ], [ 475707.98766933492152, 570017.586163617088459 ], [ 475707.950753362383693, 570017.274262139806524 ], [ 475707.889479681616649, 570016.966218544635922 ], [ 475707.804226065170951, 570016.663932022522204 ], [ 475707.695518130029086, 570016.369266270543449 ], [ 475707.564026096777525, 570016.084038001019508 ], [ 475707.410560657444876, 570015.810005741193891 ], [ 475707.236067977501079, 570015.548858990892768 ], [ 475707.041623862402048, 570015.302207806729712 ], [ 475706.828427124768496, 570015.071572875254788 ], [ 475706.597792193293571, 570014.858376137679443 ], [ 475706.351141009188723, 570014.663932022522204 ], [ 475706.0899942588876, 570014.489439342636615 ], [ 475705.815961998945568, 570014.335973903303966 ], [ 475705.530733729479834, 570014.204481869935989 ], [ 475705.236067977501079, 570014.095773934852332 ], [ 475704.933781455445569, 570014.010520318406634 ], [ 475704.625737860158551, 570013.94924663763959 ], [ 475704.313836382934824, 570013.912330665043555 ], [ 475704.0, 570013.900000000023283 ], [ 475703.686163617065176, 570013.912330665043555 ], [ 475703.374262139841449, 570013.94924663763959 ], [ 475703.066218544554431, 570014.010520318406634 ], [ 475702.763932022498921, 570014.095773934852332 ], [ 475702.469266270520166, 570014.204481869935989 ], [ 475702.184038001054432, 570014.335973903303966 ], [ 475701.9100057411124, 570014.489439342636615 ], [ 475701.648858990811277, 570014.663932022522204 ], [ 475701.402207806706429, 570014.858376137679443 ], [ 475701.171572875231504, 570015.071572875254788 ], [ 475700.958376137597952, 570015.302207806729712 ], [ 475700.763932022498921, 570015.548858990892768 ], [ 475700.589439342555124, 570015.810005741193891 ], [ 475700.435973903222475, 570016.084038001019508 ], [ 475700.304481869970914, 570016.369266270543449 ], [ 475700.195773934829049, 570016.663932022522204 ], [ 475700.110520318383351, 570016.966218544635922 ], [ 475700.049246637616307, 570017.274262139806524 ], [ 475700.01233066507848, 570017.586163617088459 ], [ 475700.0, 570017.900000000023283 ], [ 475700.01233066507848, 570018.213836382958107 ], [ 475700.049246637616307, 570018.525737860240042 ], [ 475700.110520318383351, 570018.833781455410644 ], [ 475700.195773934829049, 570019.136067977524363 ], [ 475700.304481869970914, 570019.430733729503118 ], [ 475700.435973903222475, 570019.715961999027058 ], [ 475700.589439342555124, 570019.989994258852676 ], [ 475700.763932022498921, 570020.251141009153798 ], [ 475700.958376137597952, 570020.497792193316855 ], [ 475701.171572875231504, 570020.728427124791779 ], [ 475701.402207806706429, 570020.941623862367123 ], [ 475701.648858990811277, 570021.136067977524363 ], [ 475701.9100057411124, 570021.310560657409951 ], [ 475702.184038001054432, 570021.4640260967426 ], [ 475702.469266270520166, 570021.595518130110577 ], [ 475702.763932022498921, 570021.704226065194234 ], [ 475703.066218544554431, 570021.789479681639932 ], [ 475703.374262139841449, 570021.850753362406977 ], [ 475703.686163617065176, 570021.887669335003011 ], [ 475704.0, 570021.900000000023283 ], [ 475704.313836382934824, 570021.887669335003011 ], [ 475704.625737860158551, 570021.850753362406977 ], [ 475704.933781455445569, 570021.789479681639932 ], [ 475705.236067977501079, 570021.704226065194234 ], [ 475705.530733729479834, 570021.595518130110577 ], [ 475705.815961998945568, 570021.4640260967426 ], [ 475706.0899942588876, 570021.310560657409951 ], [ 475706.351141009188723, 570021.136067977524363 ], [ 475706.597792193293571, 570020.941623862367123 ], [ 475706.828427124768496, 570020.728427124791779 ], [ 475707.041623862402048, 570020.497792193316855 ], [ 475707.236067977501079, 570020.251141009153798 ], [ 475707.410560657444876, 570019.989994258852676 ], [ 475707.564026096777525, 570019.715961999027058 ], [ 475707.695518130029086, 570019.430733729503118 ], [ 475707.804226065170951, 570019.136067977524363 ], [ 475707.889479681616649, 570018.833781455410644 ], [ 475707.950753362383693, 570018.525737860240042 ], [ 475707.98766933492152, 570018.213836382958107 ], [ 475708.0, 570017.900000000023283 ] ] ] } },
{ "type": "Feature", "properties": { "fid": 19, "tree_id": "E19", "canopy_m": 6.0, "source": "2026 orthophoto", "accuracy": "approximate canopy/cluster" }, "geometry": { "type": "Polygon", "coordinates": [ [ [ 475739.0, 569952.400000000023283 ], [ 475738.990752001176588, 569952.164622712880373 ], [ 475738.96306502178777, 569951.930696604889818 ], [ 475738.917109761212487, 569951.699663908453658 ], [ 475738.853169548907317, 569951.472949016955681 ], [ 475738.771638597536366, 569951.251949702971615 ], [ 475738.673019572568592, 569951.038028500857763 ], [ 475738.557920493069105, 569950.832504305872135 ], [ 475738.42705098312581, 569950.636644243146293 ], [ 475738.281217896786984, 569950.451655855053104 ], [ 475738.121320343576372, 569950.278679656446911 ], [ 475737.948344144970179, 569950.118782103178091 ], [ 475737.76335575687699, 569949.972949016955681 ], [ 475737.567495694151148, 569949.842079506954178 ], [ 475737.361971499223728, 569949.726980427512899 ], [ 475737.148050297109876, 569949.628361402545124 ], [ 475736.92705098312581, 569949.546830451115966 ], [ 475736.700336091569625, 569949.482890238869004 ], [ 475736.469303395133466, 569949.436934978235513 ], [ 475736.235377287201118, 569949.409247998846695 ], [ 475736.0, 569949.400000000023283 ], [ 475735.764622712798882, 569949.409247998846695 ], [ 475735.530696604866534, 569949.436934978235513 ], [ 475735.299663908430375, 569949.482890238869004 ], [ 475735.07294901687419, 569949.546830451115966 ], [ 475734.851949702890124, 569949.628361402545124 ], [ 475734.638028500776272, 569949.726980427512899 ], [ 475734.432504305848852, 569949.842079506954178 ], [ 475734.23664424312301, 569949.972949016955681 ], [ 475734.051655855029821, 569950.118782103178091 ], [ 475733.878679656423628, 569950.278679656446911 ], [ 475733.718782103213016, 569950.451655855053104 ], [ 475733.57294901687419, 569950.636644243146293 ], [ 475733.442079506930895, 569950.832504305872135 ], [ 475733.326980427431408, 569951.038028500857763 ], [ 475733.228361402463634, 569951.251949702971615 ], [ 475733.146830451092683, 569951.472949016955681 ], [ 475733.082890238787513, 569951.699663908453658 ], [ 475733.03693497821223, 569951.930696604889818 ], [ 475733.009247998823412, 569952.164622712880373 ], [ 475733.0, 569952.400000000023283 ], [ 475733.009247998823412, 569952.635377287166193 ], [ 475733.03693497821223, 569952.869303395156749 ], [ 475733.082890238787513, 569953.100336091592908 ], [ 475733.146830451092683, 569953.327050983090885 ], [ 475733.228361402463634, 569953.548050297074951 ], [ 475733.326980427431408, 569953.761971499188803 ], [ 475733.442079506930895, 569953.967495694174431 ], [ 475733.57294901687419, 569954.163355756900273 ], [ 475733.718782103213016, 569954.348344144993462 ], [ 475733.878679656423628, 569954.521320343599655 ], [ 475734.051655855029821, 569954.681217896868475 ], [ 475734.23664424312301, 569954.827050983090885 ], [ 475734.432504305848852, 569954.957920493092388 ], [ 475734.638028500776272, 569955.073019572533667 ], [ 475734.851949702890124, 569955.171638597501442 ], [ 475735.07294901687419, 569955.2531695489306 ], [ 475735.299663908430375, 569955.317109761177562 ], [ 475735.530696604866534, 569955.363065021811053 ], [ 475735.764622712798882, 569955.390752001199871 ], [ 475736.0, 569955.400000000023283 ], [ 475736.235377287201118, 569955.390752001199871 ], [ 475736.469303395133466, 569955.363065021811053 ], [ 475736.700336091569625, 569955.317109761177562 ], [ 475736.92705098312581, 569955.2531695489306 ], [ 475737.148050297109876, 569955.171638597501442 ], [ 475737.361971499223728, 569955.073019572533667 ], [ 475737.567495694151148, 569954.957920493092388 ], [ 475737.76335575687699, 569954.827050983090885 ], [ 475737.948344144970179, 569954.681217896868475 ], [ 475738.121320343576372, 569954.521320343599655 ], [ 475738.281217896786984, 569954.348344144993462 ], [ 475738.42705098312581, 569954.163355756900273 ], [ 475738.557920493069105, 569953.967495694174431 ], [ 475738.673019572568592, 569953.761971499188803 ], [ 475738.771638597536366, 569953.548050297074951 ], [ 475738.853169548907317, 569953.327050983090885 ], [ 475738.917109761212487, 569953.100336091592908 ], [ 475738.96306502178777, 569952.869303395156749 ], [ 475738.990752001176588, 569952.635377287166193 ], [ 475739.0, 569952.400000000023283 ] ] ] } },
{ "type": "Feature", "properties": { "fid": 22, "tree_id": "E25", "canopy_m": 9.0, "source": "2026 orthophoto", "accuracy": "approximate canopy/cluster" }, "geometry": { "type": "Polygon", "coordinates": [ [ [ 475702.900000000023283, 569959.900000000023283 ], [ 475702.886128001846373, 569959.54693406925071 ], [ 475702.844597532704938, 569959.196044907323085 ], [ 475702.775664641812909, 569958.849495862727053 ], [ 475702.679754323326051, 569958.509423525305465 ], [ 475702.557457896298729, 569958.177924554329365 ], [ 475702.409529358847067, 569957.857042751158588 ], [ 475702.23688073962694, 569957.548756458796561 ], [ 475702.040576474682894, 569957.254966364707798 ], [ 475701.821826845232863, 569956.977483782568015 ], [ 475701.581980515387841, 569956.718019484658726 ], [ 475701.322516217536759, 569956.478173154871911 ], [ 475701.045033635338768, 569956.259423525305465 ], [ 475700.751243541250005, 569956.063119260477833 ], [ 475700.442957248829771, 569955.890470641199499 ], [ 475700.122075445658993, 569955.742542103747837 ], [ 475699.790576474682894, 569955.620245676720515 ], [ 475699.45050413737772, 569955.524335358291864 ], [ 475699.103955092723481, 569955.455402467399836 ], [ 475698.753065930795856, 569955.413871998200193 ], [ 475698.400000000023283, 569955.400000000023283 ], [ 475698.04693406925071, 569955.413871998200193 ], [ 475697.696044907323085, 569955.455402467399836 ], [ 475697.349495862668846, 569955.524335358291864 ], [ 475697.009423525363673, 569955.620245676720515 ], [ 475696.677924554387573, 569955.742542103747837 ], [ 475696.357042751216795, 569955.890470641199499 ], [ 475696.048756458796561, 569956.063119260477833 ], [ 475695.754966364707798, 569956.259423525305465 ], [ 475695.477483782509807, 569956.478173154871911 ], [ 475695.218019484658726, 569956.718019484658726 ], [ 475694.978173154813703, 569956.977483782568015 ], [ 475694.759423525363673, 569957.254966364707798 ], [ 475694.563119260419626, 569957.548756458796561 ], [ 475694.390470641199499, 569957.857042751158588 ], [ 475694.242542103747837, 569958.177924554329365 ], [ 475694.120245676720515, 569958.509423525305465 ], [ 475694.024335358233657, 569958.849495862727053 ], [ 475693.955402467341628, 569959.196044907323085 ], [ 475693.913871998200193, 569959.54693406925071 ], [ 475693.900000000023283, 569959.900000000023283 ], [ 475693.913871998200193, 569960.253065930795856 ], [ 475693.955402467341628, 569960.603955092723481 ], [ 475694.024335358233657, 569960.950504137319513 ], [ 475694.120245676720515, 569961.290576474741101 ], [ 475694.242542103747837, 569961.622075445717201 ], [ 475694.390470641199499, 569961.942957248887978 ], [ 475694.563119260419626, 569962.251243541250005 ], [ 475694.759423525363673, 569962.545033635338768 ], [ 475694.978173154813703, 569962.822516217478551 ], [ 475695.218019484658726, 569963.081980515387841 ], [ 475695.477483782509807, 569963.321826845174655 ], [ 475695.754966364707798, 569963.540576474741101 ], [ 475696.048756458796561, 569963.736880739568733 ], [ 475696.357042751216795, 569963.909529358847067 ], [ 475696.677924554387573, 569964.057457896298729 ], [ 475697.009423525363673, 569964.179754323326051 ], [ 475697.349495862668846, 569964.275664641754702 ], [ 475697.696044907323085, 569964.344597532646731 ], [ 475698.04693406925071, 569964.386128001846373 ], [ 475698.400000000023283, 569964.400000000023283 ], [ 475698.753065930795856, 569964.386128001846373 ], [ 475699.103955092723481, 569964.344597532646731 ], [ 475699.45050413737772, 569964.275664641754702 ], [ 475699.790576474682894, 569964.179754323326051 ], [ 475700.122075445658993, 569964.057457896298729 ], [ 475700.442957248829771, 569963.909529358847067 ], [ 475700.751243541250005, 569963.736880739568733 ], [ 475701.045033635338768, 569963.540576474741101 ], [ 475701.322516217536759, 569963.321826845174655 ], [ 475701.581980515387841, 569963.081980515387841 ], [ 475701.821826845232863, 569962.822516217478551 ], [ 475702.040576474682894, 569962.545033635338768 ], [ 475702.23688073962694, 569962.251243541250005 ], [ 475702.409529358847067, 569961.942957248887978 ], [ 475702.557457896298729, 569961.622075445717201 ], [ 475702.679754323326051, 569961.290576474741101 ], [ 475702.775664641812909, 569960.950504137319513 ], [ 475702.844597532704938, 569960.603955092723481 ], [ 475702.886128001846373, 569960.253065930795856 ], [ 475702.900000000023283, 569959.900000000023283 ] ] ] } },
{ "type": "Feature", "properties": { "fid": 25, "tree_id": "E28", "canopy_m": 5.0, "source": "2026 orthophoto", "accuracy": "approximate canopy/cluster" }, "geometry": { "type": "Polygon", "coordinates": [ [ [ 475730.299999999988358, 569954.599999999976717 ], [ 475730.292293334321585, 569954.403852260671556 ], [ 475730.269220851478167, 569954.208913837326691 ], [ 475730.23092480096966, 569954.01638659031596 ], [ 475730.177641290705651, 569953.827457514009438 ], [ 475730.109698831278365, 569953.643291419022717 ], [ 475730.027516310452484, 569953.465023750672117 ], [ 475729.931600410898682, 569953.293753588222899 ], [ 475729.822542485897429, 569953.130536869284697 ], [ 475729.701014913967811, 569952.976379879168235 ], [ 475729.567766952968668, 569952.832233046996407 ], [ 475729.423620120796841, 569952.698985085939057 ], [ 475729.269463130738586, 569952.577457514009438 ], [ 475729.106246411800385, 569952.468399589066394 ], [ 475728.934976249351166, 569952.372483689454384 ], [ 475728.756708580884151, 569952.29030116868671 ], [ 475728.572542485897429, 569952.222358709201217 ], [ 475728.383613409649115, 569952.169075198937207 ], [ 475728.191086162580177, 569952.130779148545116 ], [ 475727.996147739293519, 569952.107706665643491 ], [ 475727.799999999988358, 569952.099999999976717 ], [ 475727.603852260683198, 569952.107706665643491 ], [ 475727.40891383739654, 569952.130779148545116 ], [ 475727.216386590327602, 569952.169075198937207 ], [ 475727.027457514079288, 569952.222358709201217 ], [ 475726.843291419092566, 569952.29030116868671 ], [ 475726.665023750625551, 569952.372483689454384 ], [ 475726.493753588176332, 569952.468399589066394 ], [ 475726.330536869238131, 569952.577457514009438 ], [ 475726.176379879179876, 569952.698985085939057 ], [ 475726.032233047008049, 569952.832233046996407 ], [ 475725.898985086008906, 569952.976379879168235 ], [ 475725.777457514079288, 569953.130536869284697 ], [ 475725.668399589078035, 569953.293753588222899 ], [ 475725.572483689524233, 569953.465023750672117 ], [ 475725.490301168698352, 569953.643291419022717 ], [ 475725.422358709271066, 569953.827457514009438 ], [ 475725.369075199007057, 569954.01638659031596 ], [ 475725.33077914849855, 569954.208913837326691 ], [ 475725.307706665655132, 569954.403852260671556 ], [ 475725.299999999988358, 569954.599999999976717 ], [ 475725.307706665655132, 569954.796147739281878 ], [ 475725.33077914849855, 569954.991086162626743 ], [ 475725.369075199007057, 569955.183613409637474 ], [ 475725.422358709271066, 569955.372542485943995 ], [ 475725.490301168698352, 569955.556708580930717 ], [ 475725.572483689524233, 569955.734976249281317 ], [ 475725.668399589078035, 569955.906246411730535 ], [ 475725.777457514079288, 569956.069463130668737 ], [ 475725.898985086008906, 569956.223620120785199 ], [ 475726.032233047008049, 569956.367766952957027 ], [ 475726.176379879179876, 569956.501014914014377 ], [ 475726.330536869238131, 569956.622542485943995 ], [ 475726.493753588176332, 569956.73160041088704 ], [ 475726.665023750625551, 569956.82751631049905 ], [ 475726.843291419092566, 569956.909698831266724 ], [ 475727.027457514079288, 569956.977641290752217 ], [ 475727.216386590327602, 569957.030924801016226 ], [ 475727.40891383739654, 569957.069220851408318 ], [ 475727.603852260683198, 569957.092293334309943 ], [ 475727.799999999988358, 569957.099999999976717 ], [ 475727.996147739293519, 569957.092293334309943 ], [ 475728.191086162580177, 569957.069220851408318 ], [ 475728.383613409649115, 569957.030924801016226 ], [ 475728.572542485897429, 569956.977641290752217 ], [ 475728.756708580884151, 569956.909698831266724 ], [ 475728.934976249351166, 569956.82751631049905 ], [ 475729.106246411800385, 569956.73160041088704 ], [ 475729.269463130738586, 569956.622542485943995 ], [ 475729.423620120796841, 569956.501014914014377 ], [ 475729.567766952968668, 569956.367766952957027 ], [ 475729.701014913967811, 569956.223620120785199 ], [ 475729.822542485897429, 569956.069463130668737 ], [ 475729.931600410898682, 569955.906246411730535 ], [ 475730.027516310452484, 569955.734976249281317 ], [ 475730.109698831278365, 569955.556708580930717 ], [ 475730.177641290705651, 569955.372542485943995 ], [ 475730.23092480096966, 569955.183613409637474 ], [ 475730.269220851478167, 569954.991086162626743 ], [ 475730.292293334321585, 569954.796147739281878 ], [ 475730.299999999988358, 569954.599999999976717 ] ] ] } },
{ "type": "Feature", "properties": { "fid": 26, "tree_id": "E29", "canopy_m": 5.0, "source": "2026 orthophoto", "accuracy": "approximate canopy/cluster" }, "geometry": { "type": "Polygon", "coordinates": [ [ [ 475725.599999999976717, 569935.699999999953434 ], [ 475725.592293334309943, 569935.503852260648273 ], [ 475725.569220851466525, 569935.308913837303407 ], [ 475725.530924800958019, 569935.116386590292677 ], [ 475725.47764129069401, 569934.927457513986155 ], [ 475725.409698831266724, 569934.743291418999434 ], [ 475725.327516310440842, 569934.565023750648834 ], [ 475725.23160041088704, 569934.393753588199615 ], [ 475725.122542485885788, 569934.230536869261414 ], [ 475725.001014913956169, 569934.076379879144952 ], [ 475724.867766952957027, 569933.932233046973124 ], [ 475724.723620120785199, 569933.798985085915774 ], [ 475724.569463130726945, 569933.677457513986155 ], [ 475724.406246411788743, 569933.568399589043111 ], [ 475724.234976249339525, 569933.472483689431101 ], [ 475724.05670858087251, 569933.390301168663427 ], [ 475723.872542485885788, 569933.322358709177934 ], [ 475723.683613409637474, 569933.269075198913924 ], [ 475723.491086162568536, 569933.230779148521833 ], [ 475723.296147739281878, 569933.207706665620208 ], [ 475723.099999999976717, 569933.199999999953434 ], [ 475722.903852260671556, 569933.207706665620208 ], [ 475722.708913837384898, 569933.230779148521833 ], [ 475722.51638659031596, 569933.269075198913924 ], [ 475722.327457514067646, 569933.322358709177934 ], [ 475722.143291419080924, 569933.390301168663427 ], [ 475721.965023750613909, 569933.472483689431101 ], [ 475721.793753588164691, 569933.568399589043111 ], [ 475721.630536869226489, 569933.677457513986155 ], [ 475721.476379879168235, 569933.798985085915774 ], [ 475721.332233046996407, 569933.932233046973124 ], [ 475721.198985085997265, 569934.076379879144952 ], [ 475721.077457514067646, 569934.230536869261414 ], [ 475720.968399589066394, 569934.393753588199615 ], [ 475720.872483689512592, 569934.565023750648834 ], [ 475720.79030116868671, 569934.743291418999434 ], [ 475720.722358709259424, 569934.927457513986155 ], [ 475720.669075198995415, 569935.116386590292677 ], [ 475720.630779148486909, 569935.308913837303407 ], [ 475720.607706665643491, 569935.503852260648273 ], [ 475720.599999999976717, 569935.699999999953434 ], [ 475720.607706665643491, 569935.896147739258595 ], [ 475720.630779148486909, 569936.09108616260346 ], [ 475720.669075198995415, 569936.28361340961419 ], [ 475720.722358709259424, 569936.472542485920712 ], [ 475720.79030116868671, 569936.656708580907434 ], [ 475720.872483689512592, 569936.834976249258034 ], [ 475720.968399589066394, 569937.006246411707252 ], [ 475721.077457514067646, 569937.169463130645454 ], [ 475721.198985085997265, 569937.323620120761916 ], [ 475721.332233046996407, 569937.467766952933744 ], [ 475721.476379879168235, 569937.601014913991094 ], [ 475721.630536869226489, 569937.722542485920712 ], [ 475721.793753588164691, 569937.831600410863757 ], [ 475721.965023750613909, 569937.927516310475767 ], [ 475722.143291419080924, 569938.009698831243441 ], [ 475722.327457514067646, 569938.077641290728934 ], [ 475722.51638659031596, 569938.130924800992943 ], [ 475722.708913837384898, 569938.169220851385035 ], [ 475722.903852260671556, 569938.19229333428666 ], [ 475723.099999999976717, 569938.199999999953434 ], [ 475723.296147739281878, 569938.19229333428666 ], [ 475723.491086162568536, 569938.169220851385035 ], [ 475723.683613409637474, 569938.130924800992943 ], [ 475723.872542485885788, 569938.077641290728934 ], [ 475724.05670858087251, 569938.009698831243441 ], [ 475724.234976249339525, 569937.927516310475767 ], [ 475724.406246411788743, 569937.831600410863757 ], [ 475724.569463130726945, 569937.722542485920712 ], [ 475724.723620120785199, 569937.601014913991094 ], [ 475724.867766952957027, 569937.467766952933744 ], [ 475725.001014913956169, 569937.323620120761916 ], [ 475725.122542485885788, 569937.169463130645454 ], [ 475725.23160041088704, 569937.006246411707252 ], [ 475725.327516310440842, 569936.834976249258034 ], [ 475725.409698831266724, 569936.656708580907434 ], [ 475725.47764129069401, 569936.472542485920712 ], [ 475725.530924800958019, 569936.28361340961419 ], [ 475725.569220851466525, 569936.09108616260346 ], [ 475725.592293334309943, 569935.896147739258595 ], [ 475725.599999999976717, 569935.699999999953434 ] ] ] } }
]
}
