{
"type": "FeatureCollection",
"features": [
{ "type": "Feature", "properties": { "id_dzialki": "046301_1.0066.495", "parcel": "495", "overlap_m2": 745.0 }, "geometry": { "type": "Polygon", "coordinates": [ [ [ 18.6378647, 52.995792 ], [ 18.6378716, 52.9959641 ], [ 18.6378716, 52.9959642 ], [ 18.6377672, 52.9961122 ], [ 18.6374968, 52.9960448 ], [ 18.6375281, 52.9957854 ], [ 18.6375281, 52.9957854 ], [ 18.6378647, 52.995792 ] ] ] } },
{ "type": "Feature", "properties": { "id_dzialki": "046301_1.0066.496/1", "parcel": "496/1", "overlap_m2": 81.2 }, "geometry": { "type": "Polygon", "coordinates": [ [ [ 18.6378647, 52.995792 ], [ 18.6379913, 52.9957945 ], [ 18.6378716, 52.9959641 ], [ 18.6378647, 52.995792 ] ] ] } },
{ "type": "Feature", "properties": { "id_dzialki": "046301_1.0066.498", "parcel": "498", "overlap_m2": 185.1 }, "geometry": { "type": "Polygon", "coordinates": [ [ [ 18.6376593, 52.995245 ], [ 18.6375958, 52.9952363 ], [ 18.6376037, 52.9951599 ], [ 18.6376269, 52.9949677 ], [ 18.6377107, 52.9948735 ], [ 18.6377319, 52.9948736 ], [ 18.6376758, 52.9951003 ], [ 18.6376811, 52.9951891 ], [ 18.6376593, 52.995245 ] ] ] } },
{ "type": "Feature", "properties": { "id_dzialki": "046301_1.0066.499", "parcel": "499", "overlap_m2": 3611.7 }, "geometry": { "type": "Polygon", "coordinates": [ [ [ 18.638569, 52.9948785 ], [ 18.6385678, 52.9949812 ], [ 18.6384981, 52.9950778 ], [ 18.6384149, 52.9951952 ], [ 18.6383816, 52.9952421 ], [ 18.6383428, 52.9952971 ], [ 18.6383428, 52.9952971 ], [ 18.6379088, 52.9952953 ], [ 18.6378449, 52.995295 ], [ 18.6378484, 52.9953861 ], [ 18.6378647, 52.995792 ], [ 18.6375281, 52.9957854 ], [ 18.6375745, 52.9954019 ], [ 18.6375944, 52.9952493 ], [ 18.6375958, 52.9952363 ], [ 18.6376593, 52.995245 ], [ 18.6376811, 52.9951891 ], [ 18.6376758, 52.9951003 ], [ 18.6377319, 52.9948736 ], [ 18.6379161, 52.9948747 ], [ 18.6381871, 52.9948764 ], [ 18.638569, 52.9948785 ] ] ] } },
{ "type": "Feature", "properties": { "id_dzialki": "046301_1.0066.500/1", "parcel": "500/1", "overlap_m2": 21.7 }, "geometry": { "type": "Polygon", "coordinates": [ [ [ 18.6378484, 52.9953861 ], [ 18.6378449, 52.995295 ], [ 18.6379088, 52.9952953 ], [ 18.6378484, 52.9953861 ] ] ] } },
{ "type": "Feature", "properties": { "id_dzialki": "046301_1.0066.500/2", "parcel": "500/2", "overlap_m2": 1139.4 }, "geometry": { "type": "Polygon", "coordinates": [ [ [ 18.6379088, 52.9952953 ], [ 18.6383428, 52.9952971 ], [ 18.6382459, 52.995434 ], [ 18.6381691, 52.9955426 ], [ 18.6379913, 52.9957945 ], [ 18.6379913, 52.9957945 ], [ 18.6378647, 52.995792 ], [ 18.6378484, 52.9953861 ], [ 18.6379088, 52.9952953 ] ] ] } },
{ "type": "Feature", "properties": { "id_dzialki": "046301_1.0066.501/1", "parcel": "501/1", "overlap_m2": 1039.7 }, "geometry": { "type": "Polygon", "coordinates": [ [ [ 18.638576, 52.9942908 ], [ 18.6385859, 52.9942758 ], [ 18.6389675, 52.9944273 ], [ 18.6385678, 52.9949812 ], [ 18.6385678, 52.9949812 ], [ 18.638569, 52.9948785 ], [ 18.638576, 52.9942908 ] ] ] } },
{ "type": "Feature", "properties": { "id_dzialki": "046301_1.0066.503", "parcel": "503", "overlap_m2": 482.7 }, "geometry": { "type": "Polygon", "coordinates": [ [ [ 18.6377107, 52.9948735 ], [ 18.6376269, 52.9949677 ], [ 18.6376269, 52.9949677 ], [ 18.6376557, 52.9948903 ], [ 18.637697, 52.9947789 ], [ 18.6379451, 52.994099 ], [ 18.6379734, 52.9940326 ], [ 18.6379734, 52.9940326 ], [ 18.6378591, 52.9947065 ], [ 18.6377107, 52.9948735 ] ] ] } },
{ "type": "Feature", "properties": { "id_dzialki": "046301_1.0066.504", "parcel": "504", "overlap_m2": 576.6 }, "geometry": { "type": "Polygon", "coordinates": [ [ [ 18.6378591, 52.9947065 ], [ 18.6379734, 52.9940326 ], [ 18.6380456, 52.9940612 ], [ 18.6379161, 52.9948747 ], [ 18.6377319, 52.9948736 ], [ 18.6377107, 52.9948735 ], [ 18.6378591, 52.9947065 ] ] ] } },
{ "type": "Feature", "properties": { "id_dzialki": "046301_1.0066.505/1", "parcel": "505/1", "overlap_m2": 2352.5 }, "geometry": { "type": "Polygon", "coordinates": [ [ [ 18.6379161, 52.9948747 ], [ 18.6380456, 52.9940612 ], [ 18.6385762, 52.9942719 ], [ 18.638576, 52.9942908 ], [ 18.6381871, 52.9948764 ], [ 18.6379161, 52.9948747 ] ] ] } },
{ "type": "Feature", "properties": { "id_dzialki": "046301_1.0066.505/2", "parcel": "505/2", "overlap_m2": 837.6 }, "geometry": { "type": "Polygon", "coordinates": [ [ [ 18.638569, 52.9948785 ], [ 18.6381871, 52.9948764 ], [ 18.638576, 52.9942908 ], [ 18.638569, 52.9948785 ] ] ] } }
]
}
